start=new Date('2023-02-27T00:00:00.000Z').valueOf();
sats=[{"PERIOD":"95.437","PERIAPSIS":"538.943","EPHEMERIS_TYPE":"0","EPOCH":"2023-02-26T02:12:21.323808","RCS_SIZE":"LARGE","SEMIMAJOR_AXIS":"6917.835","REF_FRAME":"TEME","REV_AT_EPOCH":"3871","SITE":"AFETR","RA_OF_ASC_NODE":"316.3206","ELEMENT_SET_NO":"999","ARG_OF_PERICENTER":"80.0378","INCLINATION":"53.2173","MEAN_ANOMALY":"280.0738","ECCENTRICITY":"0.00010950","COUNTRY_CODE":"US","OBJECT_NAME":"STARLINK-4201","MEAN_MOTION_DOT":"0.00025163","GP_ID":"227007825","MEAN_MOTION":"15.08854785","TLE_LINE1":"1 52856U 22062AC  23057.09191347  .00025163  00000-0  15928-2 0  9993","DECAY_DATE":null,"LAUNCH_DATE":"2022-06-17","CLASSIFICATION_TYPE":"U","APOAPSIS":"540.458","CENTER_NAME":"EARTH","OBJECT_TYPE":"PAYLOAD","TIME_SYSTEM":"UTC","MEAN_ELEMENT_THEORY":"SGP4","NORAD_CAT_ID":"52856","OBJECT_ID":"2022-062AC","FILE":"3841853","MEAN_MOTION_DDOT":"0.0000000000000","BSTAR":"0.00159280000000","TLE_LINE2":"2 52856  53.2173 316.3206 0001095  80.0378 280.0738 15.08854785 38719"},{"SITE":"AFETR","ELEMENT_SET_NO":"999","RA_OF_ASC_NODE":"313.0993","ARG_OF_PERICENTER":"79.3917","INCLINATION":"53.2162","MEAN_ANOMALY":"280.7221","GP_ID":"227035141","MEAN_MOTION":"15.08860554","COUNTRY_CODE":"US","ECCENTRICITY":"0.00012970","OBJECT_NAME":"STARLINK-4199","MEAN_MOTION_DOT":"0.00010478","PERIAPSIS":"538.785","EPHEMERIS_TYPE":"0","PERIOD":"95.436","REV_AT_EPOCH":"3931","EPOCH":"2023-02-26T19:25:41.289024","SEMIMAJOR_AXIS":"6917.818","RCS_SIZE":"LARGE","REF_FRAME":"TEME","OBJECT_ID":"2022-062AD","TIME_SYSTEM":"UTC","MEAN_ELEMENT_THEORY":"SGP4","NORAD_CAT_ID":"52857","MEAN_MOTION_DDOT":"0.0000000000000","FILE":"3842890","TLE_LINE2":"2 52857  53.2162 313.0993 0001297  79.3917 280.7221 15.08860554 39311","BSTAR":"0.00067505000000","DECAY_DATE":null,"LAUNCH_DATE":"2022-06-17","TLE_LINE1":"1 52857U 22062AD  23057.80950566  .00010478  00000-0  67505-3 0  9991","CENTER_NAME":"EARTH","OBJECT_TYPE":"PAYLOAD","CLASSIFICATION_TYPE":"U","APOAPSIS":"540.580"},{"OBJECT_ID":"2022-062AE","MEAN_ELEMENT_THEORY":"SGP4","TIME_SYSTEM":"UTC","NORAD_CAT_ID":"52858","FILE":"3843368","MEAN_MOTION_DDOT":"0.0000000000000","BSTAR":"0.00088697000000","TLE_LINE2":"2 52858  53.2171 313.6556 0001213  85.3105 274.8026 15.08861690 38809","DECAY_DATE":null,"LAUNCH_DATE":"2022-06-17","TLE_LINE1":"1 52858U 22062AE  23057.68534377  .00013865  00000-0  88697-3 0  9994","CENTER_NAME":"EARTH","OBJECT_TYPE":"PAYLOAD","APOAPSIS":"540.518","CLASSIFICATION_TYPE":"U","SITE":"AFETR","ELEMENT_SET_NO":"999","RA_OF_ASC_NODE":"313.6556","ARG_OF_PERICENTER":"85.3105","MEAN_ANOMALY":"274.8026","INCLINATION":"53.2171","GP_ID":"227066730","MEAN_MOTION":"15.08861690","COUNTRY_CODE":"US","ECCENTRICITY":"0.00012130","OBJECT_NAME":"STARLINK-4198","MEAN_MOTION_DOT":"0.00013865","PERIAPSIS":"538.840","EPHEMERIS_TYPE":"0","PERIOD":"95.436","REV_AT_EPOCH":"3880","RCS_SIZE":"LARGE","SEMIMAJOR_AXIS":"6917.814","EPOCH":"2023-02-26T16:26:53.701728","REF_FRAME":"TEME"},{"REV_AT_EPOCH":"3870","RCS_SIZE":"LARGE","SEMIMAJOR_AXIS":"6917.865","EPOCH":"2023-02-26T00:15:46.350432","REF_FRAME":"TEME","PERIAPSIS":"538.608","EPHEMERIS_TYPE":"0","PERIOD":"95.437","GP_ID":"227007076","MEAN_MOTION":"15.08844892","COUNTRY_CODE":"US","ECCENTRICITY":"0.00016220","MEAN_MOTION_DOT":"0.00007546","OBJECT_NAME":"STARLINK-4196","SITE":"AFETR","ARG_OF_PERICENTER":"101.9609","RA_OF_ASC_NODE":"316.6876","ELEMENT_SET_NO":"999","INCLINATION":"53.2186","MEAN_ANOMALY":"258.1565","CENTER_NAME":"EARTH","OBJECT_TYPE":"PAYLOAD","APOAPSIS":"540.853","CLASSIFICATION_TYPE":"U","DECAY_DATE":null,"LAUNCH_DATE":"2022-06-17","TLE_LINE1":"1 52859U 22062AF  23057.01095313  .00007546  00000-0  49165-3 0  9990","FILE":"3841853","MEAN_MOTION_DDOT":"0.0000000000000","BSTAR":"0.00049165000000","TLE_LINE2":"2 52859  53.2186 316.6876 0001622 101.9609 258.1565 15.08844892 38709","OBJECT_ID":"2022-062AF","TIME_SYSTEM":"UTC","MEAN_ELEMENT_THEORY":"SGP4","NORAD_CAT_ID":"52859"},{"CENTER_NAME":"EARTH","OBJECT_TYPE":"PAYLOAD","CLASSIFICATION_TYPE":"U","APOAPSIS":"540.321","DECAY_DATE":null,"LAUNCH_DATE":"2022-06-17","TLE_LINE1":"1 52860U 22062AG  23057.81319964  .00025670  00000-0  16237-2 0  9992","FILE":"3843368","MEAN_MOTION_DDOT":"0.0000000000000","BSTAR":"0.00162370000000","TLE_LINE2":"2 52860  53.2137 313.0844 0000973  82.3712 277.7390 15.08871776 38825","OBJECT_ID":"2022-062AG","TIME_SYSTEM":"UTC","MEAN_ELEMENT_THEORY":"SGP4","NORAD_CAT_ID":"52860","REV_AT_EPOCH":"3882","EPOCH":"2023-02-26T19:31:00.448896","RCS_SIZE":"LARGE","SEMIMAJOR_AXIS":"6917.783","REF_FRAME":"TEME","PERIAPSIS":"538.975","EPHEMERIS_TYPE":"0","PERIOD":"95.436","GP_ID":"227067702","MEAN_MOTION":"15.08871776","ECCENTRICITY":"0.00009730","COUNTRY_CODE":"US","OBJECT_NAME":"STARLINK-4191","MEAN_MOTION_DOT":"0.00025670","SITE":"AFETR","ELEMENT_SET_NO":"999","RA_OF_ASC_NODE":"313.0844","ARG_OF_PERICENTER":"82.3712","MEAN_ANOMALY":"277.7390","INCLINATION":"53.2137"},{"EPHEMERIS_TYPE":"0","PERIAPSIS":"539.295","PERIOD":"95.458","REV_AT_EPOCH":"3873","REF_FRAME":"TEME","RCS_SIZE":"LARGE","SEMIMAJOR_AXIS":"6918.854","EPOCH":"2023-02-26T04:35:35.700288","INCLINATION":"53.2147","MEAN_ANOMALY":"285.2802","ARG_OF_PERICENTER":"74.8418","SITE":"AFETR","RA_OF_ASC_NODE":"315.8782","ELEMENT_SET_NO":"999","MEAN_MOTION":"15.08521413","GP_ID":"227008577","OBJECT_NAME":"STARLINK-4112","MEAN_MOTION_DOT":"-0.00125465","COUNTRY_CODE":"US","ECCENTRICITY":"0.00020590","LAUNCH_DATE":"2022-06-17","DECAY_DATE":null,"TLE_LINE1":"1 52861U 22062AH  23057.19138542 -.00125465  00000-0 -80741-2 0  9991","OBJECT_TYPE":"PAYLOAD","CENTER_NAME":"EARTH","APOAPSIS":"542.144","CLASSIFICATION_TYPE":"U","OBJECT_ID":"2022-062AH","NORAD_CAT_ID":"52861","MEAN_ELEMENT_THEORY":"SGP4","TIME_SYSTEM":"UTC","TLE_LINE2":"2 52861  53.2147 315.8782 0002059  74.8418 285.2802 15.08521413 38736","BSTAR":"-0.00807410000000","MEAN_MOTION_DDOT":"0.0000000000000","FILE":"3841853"},{"REF_FRAME":"TEME","EPOCH":"2023-02-26T00:10:28.190208","RCS_SIZE":"LARGE","SEMIMAJOR_AXIS":"6917.843","REV_AT_EPOCH":"3870","PERIOD":"95.437","EPHEMERIS_TYPE":"0","PERIAPSIS":"538.836","MEAN_MOTION_DOT":"0.00010775","OBJECT_NAME":"STARLINK-4010","COUNTRY_CODE":"US","ECCENTRICITY":"0.00012610","MEAN_MOTION":"15.08852135","GP_ID":"227008828","INCLINATION":"53.2186","MEAN_ANOMALY":"269.6163","SITE":"AFETR","ARG_OF_PERICENTER":"90.4974","ELEMENT_SET_NO":"999","RA_OF_ASC_NODE":"316.6985","CLASSIFICATION_TYPE":"U","APOAPSIS":"540.581","OBJECT_TYPE":"PAYLOAD","CENTER_NAME":"EARTH","TLE_LINE1":"1 52862U 22062AJ  23057.00727072  .00010775  00000-0  69382-3 0  9998","LAUNCH_DATE":"2022-06-17","DECAY_DATE":null,"TLE_LINE2":"2 52862  53.2186 316.6985 0001261  90.4974 269.6163 15.08852135 38700","BSTAR":"0.00069382000000","MEAN_MOTION_DDOT":"0.0000000000000","FILE":"3841853","NORAD_CAT_ID":"52862","MEAN_ELEMENT_THEORY":"SGP4","TIME_SYSTEM":"UTC","OBJECT_ID":"2022-062AJ"},{"TLE_LINE2":"2 52863  53.2160 312.8688 0001401  95.7989 264.3163 15.08863183 38832","BSTAR":"0.00079500000000","FILE":"3843368","MEAN_MOTION_DDOT":"0.0000000000000","NORAD_CAT_ID":"52863","MEAN_ELEMENT_THEORY":"SGP4","TIME_SYSTEM":"UTC","OBJECT_ID":"2022-062AK","CLASSIFICATION_TYPE":"U","APOAPSIS":"540.644","OBJECT_TYPE":"PAYLOAD","CENTER_NAME":"EARTH","TLE_LINE1":"1 52863U 22062AK  23057.86102636  .00012395  00000-0  79500-3 0  9999","LAUNCH_DATE":"2022-06-17","DECAY_DATE":null,"OBJECT_NAME":"STARLINK-4270","MEAN_MOTION_DOT":"0.00012395","COUNTRY_CODE":"US","ECCENTRICITY":"0.00014010","MEAN_MOTION":"15.08863183","GP_ID":"227067983","MEAN_ANOMALY":"264.3163","INCLINATION":"53.2160","ELEMENT_SET_NO":"999","SITE":"AFETR","RA_OF_ASC_NODE":"312.8688","ARG_OF_PERICENTER":"95.7989","REF_FRAME":"TEME","EPOCH":"2023-02-26T20:39:52.677504","SEMIMAJOR_AXIS":"6917.810","RCS_SIZE":"LARGE","REV_AT_EPOCH":"3883","PERIOD":"95.436","EPHEMERIS_TYPE":"0","PERIAPSIS":"538.705"},{"TLE_LINE1":"1 52864U 22062AL  23057.79846522  .00005625  00000-0  37105-3 0  9994","DECAY_DATE":null,"LAUNCH_DATE":"2022-06-17","APOAPSIS":"540.499","CLASSIFICATION_TYPE":"U","CENTER_NAME":"EARTH","OBJECT_TYPE":"PAYLOAD","TIME_SYSTEM":"UTC","MEAN_ELEMENT_THEORY":"SGP4","NORAD_CAT_ID":"52864","OBJECT_ID":"2022-062AL","MEAN_MOTION_DDOT":"0.0000000000000","FILE":"3843368","TLE_LINE2":"2 52864  53.2176 313.1464 0001154  89.1170 270.9954 15.08854750 38820","BSTAR":"0.00037105000000","PERIOD":"95.437","PERIAPSIS":"538.902","EPHEMERIS_TYPE":"0","SEMIMAJOR_AXIS":"6917.835","RCS_SIZE":"LARGE","EPOCH":"2023-02-26T19:09:47.395008","REF_FRAME":"TEME","REV_AT_EPOCH":"3882","ELEMENT_SET_NO":"999","SITE":"AFETR","RA_OF_ASC_NODE":"313.1464","ARG_OF_PERICENTER":"89.1170","MEAN_ANOMALY":"270.9954","INCLINATION":"53.2176","COUNTRY_CODE":"US","ECCENTRICITY":"0.00011540","OBJECT_NAME":"STARLINK-4267","MEAN_MOTION_DOT":"0.00005625","GP_ID":"227068202","MEAN_MOTION":"15.08854750"},{"OBJECT_ID":"2022-062AM","TIME_SYSTEM":"UTC","MEAN_ELEMENT_THEORY":"SGP4","NORAD_CAT_ID":"52865","MEAN_MOTION_DDOT":"0.0000000000000","FILE":"3841853","TLE_LINE2":"2 52865  53.2142 316.1923 0001484  92.0047 268.1115 15.08849375 38723","BSTAR":"0.00083372000000","DECAY_DATE":null,"LAUNCH_DATE":"2022-06-17","TLE_LINE1":"1 52865U 22062AM  23057.12135215  .00013009  00000-0  83372-3 0  9994","CENTER_NAME":"EARTH","OBJECT_TYPE":"PAYLOAD","APOAPSIS":"540.743","CLASSIFICATION_TYPE":"U","SITE":"AFETR","RA_OF_ASC_NODE":"316.1923","ARG_OF_PERICENTER":"92.0047","ELEMENT_SET_NO":"999","MEAN_ANOMALY":"268.1115","INCLINATION":"53.2142","GP_ID":"227008077","MEAN_MOTION":"15.08849375","COUNTRY_CODE":"US","ECCENTRICITY":"0.00014840","MEAN_MOTION_DOT":"0.00013009","OBJECT_NAME":"STARLINK-4274","PERIAPSIS":"538.690","EPHEMERIS_TYPE":"0","PERIOD":"95.437","REV_AT_EPOCH":"3872","SEMIMAJOR_AXIS":"6917.852","RCS_SIZE":"LARGE","EPOCH":"2023-02-26T02:54:44.825760","REF_FRAME":"TEME"}];
